[{"OBJECT_NAME":"STARLINK-3369","OBJECT_ID":"2022-005AQ","EPOCH":"2026-03-09T22:22:22.044576","MEAN_MOTION":15.18998951,"ECCENTRICITY":0.00032386,"INCLINATION":53.2137,"RA_OF_ASC_NODE":280.745,"ARG_OF_PERICENTER":175.5204,"MEAN_ANOMALY":184.5822,"EPHEMERIS_TYPE":0,"CLASSIFICATION_TYPE":"U","NORAD_CAT_ID":51142,"ELEMENT_SET_NO":999,"REV_AT_EPOCH":22901,"BSTAR":0.0020382455,"MEAN_MOTION_DOT":0.00043116,"MEAN_MOTION_DDOT":0},{"OBJECT_NAME":"BUZZER-1","OBJECT_ID":"2025-009A","EPOCH":"2026-03-09T17:24:25.753248","MEAN_MOTION":15.20823037,"ECCENTRICITY":0.00067423,"INCLINATION":97.3973,"RA_OF_ASC_NODE":148.7619,"ARG_OF_PERICENTER":334.5264,"MEAN_ANOMALY":25.5639,"EPHEMERIS_TYPE":0,"CLASSIFICATION_TYPE":"U","NORAD_CAT_ID":62609,"ELEMENT_SET_NO":999,"REV_AT_EPOCH":6357,"BSTAR":0.00037809783,"MEAN_MOTION_DOT":8.28e-5,"MEAN_MOTION_DDOT":0}]
